IRIDIUM 26              
1 24903U 97043A   25095.56399161  .00000602  00000+0  19648-3 0  9990
2 24903  86.3963 141.1329 0002174  89.3323 270.8123 14.37066242446785
IRIDIUM 22              
1 24907U 97043E   25094.66749487  .00000617  00000+0  20634-3 0  9997
2 24907  86.3978 144.9821 0002243  94.1504 265.9949 14.35889876446229
DUMMY MASS 1            
1 24925U 97048A   25095.19899357  .00000947  00000+0  10282-3 0  9997
2 24925  86.3403 169.0615 0008518  57.2185 302.9859 14.86908831494524
DUMMY MASS 2            
1 24926U 97048B   25095.21631506  .00000940  00000+0  10267-3 0  9997
2 24926  86.3405 170.6452 0009540  65.1917 295.0299 14.86661783494309
IRIDIUM 29              
1 24944U 97051A   25095.20388393  .00000890  00000+0  29736-3 0  9998
2 24944  86.4025 174.4881 0002324  99.6677 260.4782 14.36388951443017
IRIDIUM 33              
1 24946U 97051C   25094.75744927  .00000576  00000+0  19632-3 0  9993
2 24946  86.3940 173.9298 0006408 332.0281  28.0570 14.34838578442219
IRIDIUM 28              
1 24948U 97051E   25095.50299426  .00000781  00000+0  25547-3 0  9998
2 24948  86.4028 171.9232 0001947  85.0784 275.0635 14.37318344443473
IRIDIUM 36              
1 24967U 97056C   25095.54703063  .00001017  00000+0  33322-3 0  9998
2 24967  86.4030 203.4751 0001881  97.7636 262.3776 14.37529558441785
